H1 CPF  1  SGF 2022  1 18  2  5181 larets    
H2  0304206 5557    27944 2022  1 17  0  0  0 2022  1 22 23 57  0   180 1 1  0 0 0
H9
10 0 59601  53640.00000  0   5328966.323  -1864038.749  -4266306.604
10 0 59601  53820.00000  0   4378395.188  -1851271.629  -5241670.718
10 0 59601  54000.00000  0   3271383.117  -1744686.884  -6026499.302
10 0 59601  54180.00000  0   2050446.074  -1544640.401  -6592458.475
10 0 59601  54360.00000  0    762036.262  -1255994.162  -6919115.663
10 0 59601  54540.00000  0   -545208.278   -888019.362  -6994622.067
10 0 59601  54720.00000  0  -1822262.012   -454109.722  -6816111.401
10 0 59601  54900.00000  0  -3021508.508     28689.762  -6389813.282
10 0 59601  55080.00000  0  -4098483.151    540326.825  -5730875.742
10 0 59601  55260.00000  0  -5013517.471   1058541.151  -4862900.320
10 0 59601  55440.00000  0  -5733235.835   1559796.803  -3817181.641
10 0 59601  55620.00000  0  -6231843.850   2020319.737  -2631652.777
10 0 59601  55800.00000  0  -6492142.657   2417192.408  -1349553.001
10 0 59601  55980.00000  0  -6506213.815   2729455.129    -17855.883
10 0 59601  56160.00000  0  -6275724.494   2939155.801   1314488.874
10 0 59601  56340.00000  0  -5811821.119   3032288.637   2598419.877
10 0 59601  56520.00000  0  -5134612.682   2999568.457   3786643.950
10 0 59601  56700.00000  0  -4272273.091   2836994.503   4835442.234
10 0 59601  56880.00000  0  -3259812.847   2546174.884   5706315.398
10 0 59601  57060.00000  0  -2137594.250   2134401.999   6367403.242
10 0 59601  57240.00000  0   -949660.131   1614476.119   6794630.346
10 0 59601  57420.00000  0    258039.420   1004287.205   6972538.931
10 0 59601  57600.00000  0   1439442.527    326177.550   6894802.782
10 0 59601  57780.00000  0   2550136.080   -393889.401   6564421.591
10 0 59601  57960.00000  0   3549025.055  -1127328.281   5993596.793
10 0 59601  58140.00000  0   4399860.379  -1844066.586   5203289.967
10 0 59601  58320.00000  0   5072570.803  -2513775.474   4222470.911
10 0 59601  58500.00000  0   5544352.881  -3107150.202   3087076.722
10 0 59601  58680.00000  0   5800474.681  -3597187.512   1838701.054
10 0 59601  58860.00000  0   5834748.289  -3960399.191    523059.687
10 0 59601  59040.00000  0   5649652.209  -4177903.010   -811709.072
10 0 59601  59220.00000  0   5256095.542  -4236333.089  -2116841.179
10 0 59601  59400.00000  0   4672834.913  -4128521.351  -3344760.937
10 0 59601  59580.00000  0   3925579.038  -3853919.799  -4450829.002
10 0 59601  59760.00000  0   3045833.288  -3418746.370  -5394953.020
10 0 59601  59940.00000  0   2069548.197  -2835853.586  -6142999.535
10 0 59601  60120.00000  0   1035643.157  -2124337.407  -6667965.766
10 0 59601  60300.00000  0    -15535.174  -1308902.900  -6950894.376
10 0 59601  60480.00000  0  -1043763.267   -419008.577  -6981504.727
10 0 59601  60660.00000  0  -2010444.167    512175.349  -6758539.010
10 0 59601  60840.00000  0  -2880025.588   1448968.726  -6289823.444
10 0 59601  61020.00000  0  -3621290.645   2354512.638  -5592041.951
10 0 59601  61200.00000  0  -4208490.082   3192196.150  -4690221.153
10 0 59601  61380.00000  0  -4622278.174   3927135.368  -3616914.367
10 0 59601  61560.00000  0  -4850403.115   4527644.664  -2411092.919
10 0 59601  61740.00000  0  -4888119.840   4966635.127  -1116770.537
10 0 59601  61920.00000  0  -4738297.746   5222869.199    218603.249
10 0 59601  62100.00000  0  -4411203.008   5282000.242   1545924.128
10 0 59601  62280.00000  0  -3923958.298   5137329.650   2816308.119
10 0 59601  62460.00000  0  -3299700.760   4790232.764   3982968.175
10 0 59601  62640.00000  0  -2566488.700   4250234.614   5002994.696
10 0 59601  62820.00000  0  -1756021.804   3534735.749   5838966.268
10 0 59601  63000.00000  0   -902241.222   2668402.588   6460323.894
10 0 59601  63180.00000  0    -39882.996   1682259.856   6844458.405
10 0 59601  63360.00000  0    796946.469    612534.633   6977489.648
10 0 59601  63540.00000  0   1576122.780   -500702.505   6854727.097
10 0 59601  63720.00000  0   2268734.574  -1615050.310   6480809.036
10 0 59601  63900.00000  0   2850154.932  -2687397.402   5869521.839
10 0 59601  64080.00000  0   3300921.435  -3675596.676   5043302.742
10 0 59601  64260.00000  0   3607393.046  -4540134.416   4032435.081
10 0 59601  64440.00000  0   3762162.821  -5245731.748   2873955.518
10 0 59601  64620.00000  0   3764206.774  -5762809.415   1610300.454
10 0 59601  64800.00000  0   3618761.323  -6068746.136    287738.169
10 0 59601  64980.00000  0   3336935.771  -6148866.704  -1045351.064
10 0 59601  65160.00000  0   2935080.135  -5997113.789  -2340279.722
10 0 59601  65340.00000  0   2433936.383  -5616363.151  -3549861.659
10 0 59601  65520.00000  0   1857622.675  -5018372.523  -4630145.131
10 0 59601  65700.00000  0   1232503.297  -4223369.033  -5541992.944
10 0 59601  65880.00000  0    586010.475  -3259312.156  -6252453.196
10 0 59601  66060.00000  0    -54531.231  -2160873.647  -6735887.446
10 0 59601  66240.00000  0   -663030.512   -968178.800  -6974831.504
10 0 59601  66420.00000  0  -1215661.403    274644.285  -6960577.908
10 0 59601  66600.00000  0  -1691772.367   1521060.881  -6693473.201
10 0 59601  66780.00000  0  -2074646.073   2723826.148  -6182928.928
10 0 59601  66960.00000  0  -2352088.123   3836741.007  -5447146.736
10 0 59601  67140.00000  0  -2516828.254   4816421.068  -4512549.279
10 0 59601  67320.00000  0  -2566717.236   5624017.643  -3412910.823
10 0 59601  67500.00000  0  -2504703.703   6226814.568  -2188196.944
10 0 59601  67680.00000  0  -2338586.739   6599630.604   -883145.652
10 0 59601  67860.00000  0  -2080551.719   6725948.986    454374.195
10 0 59601  68040.00000  0  -1746507.624   6598710.841   1775161.785
10 0 59601  68220.00000  0  -1355250.437   6220705.613   3030573.018
10 0 59601  68400.00000  0   -927500.418   5604527.033   4174383.113
10 0 59601  68580.00000  0   -484873.086   4772116.832   5164541.246
10 0 59601  68760.00000  0    -48832.245   3753912.840   5964745.535
10 0 59601  68940.00000  0    360317.928   2587658.348   6545765.047
10 0 59601  69120.00000  0    724349.923   1316934.824   6886477.919
10 0 59601  69300.00000  0   1027903.919    -10515.939   6974596.360
10 0 59601  69480.00000  0   1259121.967  -1344610.082   6807069.776
10 0 59601  69660.00000  0   1410104.395  -2634820.958   6390169.437
10 0 59601  69840.00000  0   1477174.547  -3832100.415   5739250.373
10 0 59601  70020.00000  0   1460943.393  -4890754.648   4878193.905
10 0 59601  70200.00000  0   1366177.358  -5770204.476   3838550.664
10 0 59601  70380.00000  0   1201475.830  -6436576.806   2658403.976
10 0 59601  70560.00000  0    978768.711  -6864049.625   1380976.004
10 0 59601  70740.00000  0    712656.707  -7035889.066     53033.611
10 0 59601  70920.00000  0    419626.134  -6945128.957  -1276854.689
10 0 59601  71100.00000  0    117177.184  -6594841.305  -2560137.190
10 0 59601  71280.00000  0   -177081.092  -5997990.961  -3750076.834
10 0 59601  71460.00000  0   -446325.152  -5176898.169  -4803458.470
10 0 59601  71640.00000  0   -675357.918  -4162336.355  -5682136.625
10 0 59601  71820.00000  0   -851354.925  -2992322.666  -6354367.401
10 0 59601  72000.00000  0   -964483.653  -1710661.217  -6795892.141
10 0 59601  72180.00000  0  -1008373.706   -365301.291  -6990749.385
10 0 59601  72360.00000  0   -980422.677    993429.339  -6931806.761
10 0 59601  72540.00000  0   -881926.511   2314661.623  -6621007.985
10 0 59601  72720.00000  0   -718031.806   3548843.866  -6069335.765
10 0 59601  72900.00000  0   -497508.789   4649578.118  -5296486.715
10 0 59601  73080.00000  0   -232348.543   5575377.534  -4330248.055
10 0 59601  73260.00000  0     62802.181   6291282.391  -3205577.108
10 0 59601  73440.00000  0    371350.721   6770262.425  -1963393.239
10 0 59601  73620.00000  0    675584.676   6994335.323   -649112.652
10 0 59601  73800.00000  0    957576.377   6955334.233    689029.767
10 0 59601  73980.00000  0   1200119.317   6655267.807   2001803.243
10 0 59601  74160.00000  0   1387640.264   6106244.973   3240860.738
10 0 59601  74340.00000  0   1507038.553   5329971.550   4360586.666
10 0 59601  74520.00000  0   1548411.412   4356840.669   5319831.151
10 0 59601  74700.00000  0   1505621.370   3224661.477   6083448.009
10 0 59601  74880.00000  0   1376680.340   1977112.199   6623565.670
10 0 59601  75060.00000  0   1163937.796    661995.319   6920572.148
10 0 59601  75240.00000  0    874065.547   -670634.067   6963782.335
10 0 59601  75420.00000  0    517841.770  -1970387.953   6751786.986
10 0 59601  75600.00000  0    109740.321  -3188458.841   6292480.585
10 0 59601  75780.00000  0   -332659.438  -4279459.670   5602761.237
10 0 59601  75960.00000  0   -789415.488  -5203119.666   4707917.501
10 0 59601  76140.00000  0  -1239095.530  -5925794.269   3640730.671
10 0 59601  76320.00000  0  -1659750.121  -6421733.755   2440289.849
10 0 59601  76500.00000  0  -2029938.995  -6674039.657   1150558.983
10 0 59601  76680.00000  0  -2329763.221  -6675267.826   -181251.978
10 0 59601  76860.00000  0  -2541845.159  -6427642.576  -1506449.277
10 0 59601  77040.00000  0  -2652208.384  -5942873.320  -2776670.192
10 0 59601  77220.00000  0  -2651015.156  -5241586.078  -3945672.933
10 0 59601  77400.00000  0  -2533122.915  -4352400.573  -4971023.280
10 0 59601  77580.00000  0  -2298435.235  -3310712.145  -5815605.744
10 0 59601  77760.00000  0  -1952038.892  -2157247.992  -6448914.866
10 0 59601  77940.00000  0  -1504122.248   -936460.686  -6848094.667
10 0 59601  78120.00000  0   -969681.484    305174.182  -6998700.529
10 0 59601  78300.00000  0   -368029.257   1520892.168  -6895179.109
10 0 59601  78480.00000  0    277882.612   2665356.604  -6541067.653
10 0 59601  78660.00000  0    942308.873   3696316.575  -5948910.157
10 0 59601  78840.00000  0   1597708.810   4576162.254  -5139878.628
10 0 59601  79020.00000  0   2215862.625   5273323.183  -4143096.593
99
